ONEWEB-0350             
1 49214U 21083AE  25343.74319918  .00000186  00000+0  47559-3 0  9990
2 49214  87.8982 357.8756 0001394  91.7329 268.3960 13.13469962206065
ONEWEB-0351             
1 49215U 21083AF  25343.86720500  .00000135  00000+0  30129-3 0  9996
2 49215  87.9199 312.1931 0002205  60.3992 299.7361 13.20774177211789
ONEWEB-0352             
1 49216U 21083AG  25343.79991278  .00000386  00000+0  10209-2 0  9995
2 49216  87.8969 357.8874 0001862  79.0654 281.0684 13.13471138206167
ONEWEB-0354             
1 49217U 21083AH  25343.66532311  .00000167  00000+0  37990-3 0  9995
2 49217  87.9199 312.2322 0001516  84.8923 275.2383 13.20770610211797
ONEWEB-0355             
1 49218U 21083AJ  25343.75264439 -.00000055  00000+0 -18687-3 0  9999
2 49218  87.8972 357.9096 0001608  84.7198 275.4115 13.13471289206033
ONEWEB-0357             
1 49219U 21083AK  25343.66215884  .00000039  00000+0  64919-4 0  9990
2 49219  87.9198 312.2291 0001766  78.3586 281.7746 13.20774146211796
ONEWEB-0332             
1 49279U 21090A   25343.68535677 -.00000122  00000+0 -36474-3 0  9990
2 49279  87.8978 327.4717 0002017  84.0897 276.0463 13.14503225202689
ONEWEB-0347             
1 49280U 21090B   25343.87997807  .00000067  00000+0  13272-3 0  9997
2 49280  87.9193 312.1965 0002120  85.8580 274.2795 13.20772889206054
